{
    "links": {
        "self": "http://www.neowsapp.com/rest/v1/neo/54016283?api_key=iIulBulltgU6a56xZRHN4H3l9WmuAYTsLGpBGhQ2"
    },
    "id": "54016283",
    "neo_reference_id": "54016283",
    "name": "(2020 FK2)",
    "designation": "2020 FK2",
    "nasa_jpl_url": "http://ssd.jpl.nasa.gov/sbdb.cgi?sstr=54016283",
    "absolute_magnitude_h": 23.141,
    "estimated_diameter": {
        "kilometers": {
            "estimated_diameter_min": 0.0625683895,
            "estimated_diameter_max": 0.1399071722
        },
        "meters": {
            "estimated_diameter_min": 62.5683895221,
            "estimated_diameter_max": 139.9071722141
        },
        "miles": {
            "estimated_diameter_min": 0.0388781828,
            "estimated_diameter_max": 0.0869342595
        },
        "feet": {
            "estimated_diameter_min": 205.2768750797,
            "estimated_diameter_max": 459.013046887
        }
    },
    "is_potentially_hazardous_asteroid": false,
    "close_approach_data": [
        {
            "close_approach_date": "2020-03-11",
            "close_approach_date_full": "2020-Mar-11 05:46",
            "epoch_date_close_approach": 1583905560000,
            "relative_velocity": {
                "kilometers_per_second": "22.8886819278",
                "kilometers_per_hour": "82399.2549402456",
                "miles_per_hour": "51199.6926043987"
            },
            "miss_distance": {
                "astronomical": "0.1573675045",
                "lunar": "61.2159592505",
                "kilometers": "23541843.480415415",
                "miles": "14628223.219006127"
            },
            "orbiting_body": "Earth"
        }
    ],
    "orbital_data": {
        "orbit_id": "1",
        "orbit_determination_date": "2020-03-21 16:42:11",
        "first_observation_date": "2020-03-18",
        "last_observation_date": "2020-03-21",
        "data_arc_in_days": 3,
        "observations_used": 23,
        "orbit_uncertainty": "9",
        "minimum_orbit_intersection": ".0851773",
        "jupiter_tisserand_invariant": "3.734",
        "epoch_osculation": "2458927.5",
        "eccentricity": ".6587779111268063",
        "semi_major_axis": "1.822762890259999",
        "inclination": "9.147234271499233",
        "ascending_node_longitude": "21.56985097640062",
        "orbital_period": "898.863393755479",
        "perihelion_distance": ".621966960935057",
        "perihelion_argument": "54.59046671981903",
        "aphelion_distance": "3.023558819584942",
        "perihelion_time": "2458871.658653967875",
        "mean_anomaly": "22.36478280373008",
        "mean_motion": ".4005057970999452",
        "equinox": "J2000",
        "orbit_class": {
            "orbit_class_type": "APO",
            "orbit_class_description": "Near-Earth asteroid orbits which cross the Earth’s orbit similar to that of 1862 Apollo",
            "orbit_class_range": "a (semi-major axis) > 1.0 AU; q (perihelion) < 1.017 AU"
        }
    },
    "is_sentry_object": false
}